{"spkid": "54322905", "covariance": {"labels": ["e", "q", "tp", "node", "peri", "i"], "data": [["3.882572624402476E-16", "-5.010123983177307E-16", "2.047753072928695E-14", "4.787320814976806E-14", "-2.829023127143759E-14", "2.352766530832643E-14"], ["-5.010123983177307E-16", "7.541963387701695E-16", "-4.345028335039809E-14", "-7.703612063548461E-14", "2.933819840252806E-14", "-3.504415143717923E-14"], ["2.047753072928695E-14", "-4.345028335039809E-14", "2.971624702571436E-11", "5.339605189610729E-12", "1.944363771285094E-11", "7.53506551802192E-12"], ["4.787320814976806E-14", "-7.703612063548461E-14", "5.339605189610729E-12", "5.199202536846361E-11", "-4.029714906922905E-11", "1.723963376244306E-11"], ["-2.829023127143759E-14", "2.933819840252806E-14", "1.944363771285094E-11", "-4.029714906922905E-11", "5.555097828750337E-11", "-1.149930365449506E-11"], ["2.352766530832643E-14", "-3.504415143717923E-14", "7.53506551802192E-12", "1.723963376244306E-11", "-1.149930365449506E-11", "4.05614791833056E-11"]], "elements": [{"title": "eccentricity", "value": ".4148450707812062", "units": null, "sigma": 1.97042447822861e-08, "name": "e", "label": "e"}, {"sigma": 2.74626353209259e-08, "name": "q", "value": ".9134942147257855", "title": "perihelion distance", "units": "au", "label": "q"}, {"label": "tp", "title": "time of perihelion passage", "value": "2460005.288195098379", "units": "TDB", "sigma": 5.45126104912564e-06, "name": "tp"}, {"label": "node", "sigma": 7.21054958851706e-06, "name": "om", "title": "longitude of the ascending node", "value": "12.98700268934935", "units": "deg"}, {"sigma": 7.45325286619898e-06, "name": "w", "title": "argument of perihelion", "value": "134.5625815672293", "units": "deg", "label": "peri"}, {"label": "i", "name": "i", "sigma": 6.36878945980361e-06, "units": "deg", "value": "17.73948997048818", "title": "inclination"}], "epoch": "2459699.5"}, "elements": [{"sigma": "1.9875E-8", "name": "e", "value": ".4151519006279067", "title": "eccentricity", "units": null, "label": "e"}, {"label": "a", "title": "semi-major axis", "value": "1.561712128007833", "units": "au", "name": "a", "sigma": "1.9758E-8"}, {"label": "q", "sigma": "2.7412E-8", "name": "q", "units": "au", "title": "perihelion distance", "value": ".9133643698317284"}, {"label": "i", "value": "17.73713911618853", "title": "inclination; angle with respect to x-y ecliptic plane", "units": "deg", "sigma": "6.37E-6", "name": "i"}, {"label": "node", "name": "om", "sigma": "7.2126E-6", "value": "12.9490834577929", "title": "longitude of the ascending node", "units": "deg"}, {"sigma": "7.4302E-6", "name": "w", "units": "deg", "value": "134.639591857109", "title": "argument of perihelion", "label": "peri"}, {"label": "M", "title": "mean anomaly", "value": "243.443513866587", "units": "deg", "name": "ma", "sigma": "1.1279E-5"}, {"name": "tp", "sigma": "2.6608E-5", "units": "TDB", "value": "2461431.298959566711", "title": "time of perihelion passage", "label": "tp"}, {"title": "sidereal orbital period", "value": "712.8528681699623", "units": "d", "name": "per", "sigma": "1.3528E-5", "label": "period"}, {"units": "deg/d", "title": "mean motion", "value": ".5050130483786829", "sigma": "9.5839E-9", "name": "n", "label": "n"}, {"label": "Q", "sigma": "2.7961E-8", "name": "ad", "title": "aphelion distance", "value": "2.210059886183938", "units": "au"}], "epoch": "2461200.5"}